STARLINK-35972          
1 66638U 25271X   25351.55480632  .00070127  00000+0  12565-2 0  9992
2 66638  53.1592 164.1253 0001096  51.5833 308.5275 15.49336072  4957
STARLINK-35908          
1 66639U 25271Y   25351.55446332  .00071890  00000+0  12876-2 0  9995
2 66639  53.1596 164.1224 0001104  58.4227 301.6889 15.49335521  4956
STARLINK-35921          
1 66640U 25271Z   25351.10256160  .00061432  00000+0  11030-2 0  9998
2 66640  53.1597 166.2791 0001586  66.7649 293.3527 15.49331878  4884
STARLINK-35923          
1 66641U 25271AA  25351.61725371  .00067294  00000+0  12076-2 0  9993
2 66641  53.1595 163.8017 0001083  84.7351 275.3782 15.49309244  4963
STARLINK-35926          
1 66642U 25271AB  25351.61759717  .00075497  00000+0  13519-2 0  9992
2 66642  53.1593 163.8042 0000838  83.2614 276.8490 15.49320494  4921
STARLINK-35918          
1 66643U 25271AC  25351.55379026  .00081571  00000+0  14600-2 0  9999
2 66643  53.1596 164.1184 0001360  84.6792 275.4372 15.49296755  4958
STARLINK-35938          
1 66644U 25271AD  25351.48892405  .00053641  00000+0  96566-3 0  9992
2 66644  53.1597 164.4243 0000619  94.4542 265.6538 15.49316271  4947
SHENZHOU-22             
1 66645U 25272A   25351.45427678  .00020985  00000+0  26148-3 0  9991
2 66645  41.4681 348.0821 0007736  71.5092 288.6587 15.59380496263573
COSMOS 2597 (RODNIK-S *)
1 66647U 25273A   25351.62938351 -.00000002  00000+0 -87929-4 0  9993
2 66647  82.4991 283.4128 0007662 275.2154  84.8050 12.41952008  2749
COSMOS 2598 (RODNIK-S *)
1 66648U 25273B   25351.61636909 -.00000001  00000+0 -80258-4 0  9994
2 66648  82.5029 283.4156 0008030 225.1927 134.8501 12.43233447  2744
COSMOS 2599 (RODNIK-S *)
1 66649U 25273C   25351.55610566 -.00000001  00000+0 -76923-4 0  9993
2 66649  82.5047 283.4827 0006281 266.8151  93.2209 12.41150970  2736
BEE-1000                
1 66650U 25274A   25351.51514048  .00001183  00000+0  12314-3 0  9993
2 66650  97.7397 278.6151 0010589 233.7186 126.3056 14.91677845  3110
