CCSDS_OMM_VERS = 2.0
CREATION_DATE  = 
ORIGINATOR     = 

OBJECT_NAME    = STARLINK-35972
OBJECT_ID      = 2025-271X
CENTER_NAME    = EARTH
REF_FRAME      = TEME
TIME_SYSTEM    = UTC
MEAN_ELEMENT_THEORY = SGP/SGP4

EPOCH          = 2025-12-17T13:18:55.266048
MEAN_MOTION    = 15.49336072
ECCENTRICITY   = .00010961
INCLINATION    = 53.1592
RA_OF_ASC_NODE = 164.1253
ARG_OF_PERICENTER = 51.5833
MEAN_ANOMALY   = 308.5275

EPHEMERIS_TYPE = 0
CLASSIFICATION_TYPE = U
NORAD_CAT_ID   = 66638
ELEMENT_SET_NO = 999
REV_AT_EPOCH   = 495
BSTAR          = .12564551E-2
MEAN_MOTION_DOT = .70127E-3
MEAN_MOTION_DDOT = 0

CCSDS_OMM_VERS = 2.0
CREATION_DATE  = 
ORIGINATOR     = 

OBJECT_NAME    = STARLINK-35908
OBJECT_ID      = 2025-271Y
CENTER_NAME    = EARTH
REF_FRAME      = TEME
TIME_SYSTEM    = UTC
MEAN_ELEMENT_THEORY = SGP/SGP4

EPOCH          = 2025-12-17T13:18:25.630848
MEAN_MOTION    = 15.49335521
ECCENTRICITY   = .00011046
INCLINATION    = 53.1596
RA_OF_ASC_NODE = 164.1224
ARG_OF_PERICENTER = 58.4227
MEAN_ANOMALY   = 301.6889

EPHEMERIS_TYPE = 0
CLASSIFICATION_TYPE = U
NORAD_CAT_ID   = 66639
ELEMENT_SET_NO = 999
REV_AT_EPOCH   = 495
BSTAR          = .12875676E-2
MEAN_MOTION_DOT = .7189E-3
MEAN_MOTION_DDOT = 0

CCSDS_OMM_VERS = 2.0
CREATION_DATE  = 
ORIGINATOR     = 

OBJECT_NAME    = STARLINK-35921
OBJECT_ID      = 2025-271Z
CENTER_NAME    = EARTH
REF_FRAME      = TEME
TIME_SYSTEM    = UTC
MEAN_ELEMENT_THEORY = SGP/SGP4

EPOCH          = 2025-12-17T02:27:41.322240
MEAN_MOTION    = 15.49331878
ECCENTRICITY   = .0001586
INCLINATION    = 53.1597
RA_OF_ASC_NODE = 166.2791
ARG_OF_PERICENTER = 66.7649
MEAN_ANOMALY   = 293.3527

EPHEMERIS_TYPE = 0
CLASSIFICATION_TYPE = U
NORAD_CAT_ID   = 66640
ELEMENT_SET_NO = 999
REV_AT_EPOCH   = 488
BSTAR          = .1103034E-2
MEAN_MOTION_DOT = .61432E-3
MEAN_MOTION_DDOT = 0

CCSDS_OMM_VERS = 2.0
CREATION_DATE  = 
ORIGINATOR     = 

OBJECT_NAME    = STARLINK-35923
OBJECT_ID      = 2025-271AA
CENTER_NAME    = EARTH
REF_FRAME      = TEME
TIME_SYSTEM    = UTC
MEAN_ELEMENT_THEORY = SGP/SGP4

EPOCH          = 2025-12-17T14:48:50.720544
MEAN_MOTION    = 15.49309244
ECCENTRICITY   = .00010838
INCLINATION    = 53.1595
RA_OF_ASC_NODE = 163.8017
ARG_OF_PERICENTER = 84.7351
MEAN_ANOMALY   = 275.3782

EPHEMERIS_TYPE = 0
CLASSIFICATION_TYPE = U
NORAD_CAT_ID   = 66641
ELEMENT_SET_NO = 999
REV_AT_EPOCH   = 496
BSTAR          = .12075903E-2
MEAN_MOTION_DOT = .67294E-3
MEAN_MOTION_DDOT = 0

CCSDS_OMM_VERS = 2.0
CREATION_DATE  = 
ORIGINATOR     = 

OBJECT_NAME    = STARLINK-35926
OBJECT_ID      = 2025-271AB
CENTER_NAME    = EARTH
REF_FRAME      = TEME
TIME_SYSTEM    = UTC
MEAN_ELEMENT_THEORY = SGP/SGP4

EPOCH          = 2025-12-17T14:49:20.395488
MEAN_MOTION    = 15.49320494
ECCENTRICITY   = .00008386
INCLINATION    = 53.1593
RA_OF_ASC_NODE = 163.8042
ARG_OF_PERICENTER = 83.2614
MEAN_ANOMALY   = 276.8490

EPHEMERIS_TYPE = 0
CLASSIFICATION_TYPE = U
NORAD_CAT_ID   = 66642
ELEMENT_SET_NO = 999
REV_AT_EPOCH   = 492
BSTAR          = .13518654E-2
MEAN_MOTION_DOT = .75497E-3
MEAN_MOTION_DDOT = 0

CCSDS_OMM_VERS = 2.0
CREATION_DATE  = 
ORIGINATOR     = 

OBJECT_NAME    = STARLINK-35918
OBJECT_ID      = 2025-271AC
CENTER_NAME    = EARTH
REF_FRAME      = TEME
TIME_SYSTEM    = UTC
MEAN_ELEMENT_THEORY = SGP/SGP4

EPOCH          = 2025-12-17T13:17:27.478464
MEAN_MOTION    = 15.49296755
ECCENTRICITY   = .000136
INCLINATION    = 53.1596
RA_OF_ASC_NODE = 164.1184
ARG_OF_PERICENTER = 84.6792
MEAN_ANOMALY   = 275.4372

EPHEMERIS_TYPE = 0
CLASSIFICATION_TYPE = U
NORAD_CAT_ID   = 66643
ELEMENT_SET_NO = 999
REV_AT_EPOCH   = 495
BSTAR          = .14600477E-2
MEAN_MOTION_DOT = .81571E-3
MEAN_MOTION_DDOT = 0

CCSDS_OMM_VERS = 2.0
CREATION_DATE  = 
ORIGINATOR     = 

OBJECT_NAME    = STARLINK-35938
OBJECT_ID      = 2025-271AD
CENTER_NAME    = EARTH
REF_FRAME      = TEME
TIME_SYSTEM    = UTC
MEAN_ELEMENT_THEORY = SGP/SGP4

EPOCH          = 2025-12-17T11:44:03.037920
MEAN_MOTION    = 15.49316271
ECCENTRICITY   = .00006197
INCLINATION    = 53.1597
RA_OF_ASC_NODE = 164.4243
ARG_OF_PERICENTER = 94.4542
MEAN_ANOMALY   = 265.6538

EPHEMERIS_TYPE = 0
CLASSIFICATION_TYPE = U
NORAD_CAT_ID   = 66644
ELEMENT_SET_NO = 999
REV_AT_EPOCH   = 494
BSTAR          = .96565675E-3
MEAN_MOTION_DOT = .53641E-3
MEAN_MOTION_DDOT = 0

CCSDS_OMM_VERS = 2.0
CREATION_DATE  = 
ORIGINATOR     = 

OBJECT_NAME    = SHENZHOU-22
OBJECT_ID      = 2025-272A
CENTER_NAME    = EARTH
REF_FRAME      = TEME
TIME_SYSTEM    = UTC
MEAN_ELEMENT_THEORY = SGP/SGP4

EPOCH          = 2025-12-17T10:54:09.513792
MEAN_MOTION    = 15.59380496
ECCENTRICITY   = .00077365
INCLINATION    = 41.4681
RA_OF_ASC_NODE = 348.0821
ARG_OF_PERICENTER = 71.5092
MEAN_ANOMALY   = 288.6587

EPHEMERIS_TYPE = 0
CLASSIFICATION_TYPE = U
NORAD_CAT_ID   = 66645
ELEMENT_SET_NO = 999
REV_AT_EPOCH   = 26357
BSTAR          = .26147589E-3
MEAN_MOTION_DOT = .20985E-3
MEAN_MOTION_DDOT = 0

CCSDS_OMM_VERS = 2.0
CREATION_DATE  = 
ORIGINATOR     = 

OBJECT_NAME    = COSMOS 2597 (RODNIK-S 22)
OBJECT_ID      = 2025-273A
CENTER_NAME    = EARTH
REF_FRAME      = TEME
TIME_SYSTEM    = UTC
MEAN_ELEMENT_THEORY = SGP/SGP4

EPOCH          = 2025-12-17T15:06:18.735264
MEAN_MOTION    = 12.41952008
ECCENTRICITY   = .00076624
INCLINATION    = 82.4991
RA_OF_ASC_NODE = 283.4128
ARG_OF_PERICENTER = 275.2154
MEAN_ANOMALY   = 84.8050

EPHEMERIS_TYPE = 0
CLASSIFICATION_TYPE = U
NORAD_CAT_ID   = 66647
ELEMENT_SET_NO = 999
REV_AT_EPOCH   = 274
BSTAR          = -.87928608E-4
MEAN_MOTION_DOT = -.2E-7
MEAN_MOTION_DDOT = 0

CCSDS_OMM_VERS = 2.0
CREATION_DATE  = 
ORIGINATOR     = 

OBJECT_NAME    = COSMOS 2598 (RODNIK-S 23)
OBJECT_ID      = 2025-273B
CENTER_NAME    = EARTH
REF_FRAME      = TEME
TIME_SYSTEM    = UTC
MEAN_ELEMENT_THEORY = SGP/SGP4

EPOCH          = 2025-12-17T14:47:34.289376
MEAN_MOTION    = 12.43233447
ECCENTRICITY   = .00080306
INCLINATION    = 82.5029
RA_OF_ASC_NODE = 283.4156
ARG_OF_PERICENTER = 225.1927
MEAN_ANOMALY   = 134.8501

EPHEMERIS_TYPE = 0
CLASSIFICATION_TYPE = U
NORAD_CAT_ID   = 66648
ELEMENT_SET_NO = 999
REV_AT_EPOCH   = 274
BSTAR          = -.80257922E-4
MEAN_MOTION_DOT = -.1E-7
MEAN_MOTION_DDOT = 0

CCSDS_OMM_VERS = 2.0
CREATION_DATE  = 
ORIGINATOR     = 

OBJECT_NAME    = COSMOS 2599 (RODNIK-S 24)
OBJECT_ID      = 2025-273C
CENTER_NAME    = EARTH
REF_FRAME      = TEME
TIME_SYSTEM    = UTC
MEAN_ELEMENT_THEORY = SGP/SGP4

EPOCH          = 2025-12-17T13:20:47.529024
MEAN_MOTION    = 12.41150970
ECCENTRICITY   = .00062814
INCLINATION    = 82.5047
RA_OF_ASC_NODE = 283.4827
ARG_OF_PERICENTER = 266.8151
MEAN_ANOMALY   = 93.2209

EPHEMERIS_TYPE = 0
CLASSIFICATION_TYPE = U
NORAD_CAT_ID   = 66649
ELEMENT_SET_NO = 999
REV_AT_EPOCH   = 273
BSTAR          = -.76923492E-4
MEAN_MOTION_DOT = -.1E-7
MEAN_MOTION_DDOT = 0

CCSDS_OMM_VERS = 2.0
CREATION_DATE  = 
ORIGINATOR     = 

OBJECT_NAME    = BEE-1000
OBJECT_ID      = 2025-274A
CENTER_NAME    = EARTH
REF_FRAME      = TEME
TIME_SYSTEM    = UTC
MEAN_ELEMENT_THEORY = SGP/SGP4

EPOCH          = 2025-12-17T12:21:48.137472
MEAN_MOTION    = 14.91677845
ECCENTRICITY   = .00105899
INCLINATION    = 97.7397
RA_OF_ASC_NODE = 278.6151
ARG_OF_PERICENTER = 233.7186
MEAN_ANOMALY   = 126.3056

EPHEMERIS_TYPE = 0
CLASSIFICATION_TYPE = U
NORAD_CAT_ID   = 66650
ELEMENT_SET_NO = 999
REV_AT_EPOCH   = 311
BSTAR          = .12313753E-3
MEAN_MOTION_DOT = .1183E-4
MEAN_MOTION_DDOT = 0

